CSS (TIANHE)            
1 48274U 21035A   26197.24049423  .00001153  00000+0  19133-4 0  9999
2 48274  41.4687 145.4981 0002241 301.7123  58.3496 15.58121312297704
