{"fetched_at":"2026-07-16T17:46:14.830Z","source":"https://celestrak.org/NORAD/elements/gp.php?GROUP=stations&FORMAT=JSON","constellation":"tiangong","records":[{"OBJECT_NAME":"CSS (TIANHE)","OBJECT_ID":"2021-035A","EPOCH":"2026-07-16T05:46:18.701472","CLASSIFICATION_TYPE":"U","MEAN_MOTION":15.58121312,"ECCENTRICITY":0.00022414,"INCLINATION":41.4687,"RA_OF_ASC_NODE":145.4981,"ARG_OF_PERICENTER":301.7123,"MEAN_ANOMALY":58.3496,"EPHEMERIS_TYPE":0,"NORAD_CAT_ID":48274,"ELEMENT_SET_NO":999,"REV_AT_EPOCH":29770,"BSTAR":0.000019132692,"MEAN_MOTION_DOT":0.00001153,"MEAN_MOTION_DDOT":0}]}
